{
  "norad_id": 57716,
  "name": "STARLINK-30281",
  "history": [
    {
      "epoch": "2026-03-28T11:42:22.267008Z",
      "apogee_km": 484.1360832825185,
      "perigee_km": 481.8869987907665,
      "latitude_deg": -4.201617292627511e-06,
      "longitude_deg": 10.561024606687658,
      "height_km": 482.8527622891688,
      "semi_major_axis_km": 6861.148541036642,
      "eccentricity": 0.0001639,
      "inclination_deg": 42.9971,
      "raan_deg": 12.0613,
      "arg_perigee_deg": 266.7037,
      "mean_anomaly_deg": 93.3627,
      "mean_motion_rev_day": 15.27592542
    },
    {
      "epoch": "2026-03-29T04:58:06.082176Z",
      "apogee_km": 483.8584847800457,
      "perigee_km": 482.25433776049067,
      "latitude_deg": 1.979846315481471e-05,
      "longitude_deg": 106.8615547372135,
      "height_km": 482.82219280619415,
      "semi_major_axis_km": 6861.1934112702675,
      "eccentricity": 0.0001169,
      "inclination_deg": 43.004,
      "raan_deg": 8.0033,
      "arg_perigee_deg": 270.798,
      "mean_anomaly_deg": 89.2738,
      "mean_motion_rev_day": 15.27577557
    },
    {
      "epoch": "2026-03-30T02:56:17.243520Z",
      "apogee_km": 483.9572421220646,
      "perigee_km": 482.0930643650281,
      "latitude_deg": -3.6112671853781196e-05,
      "longitude_deg": 131.24132378953178,
      "height_km": 482.93293536802145,
      "semi_major_axis_km": 6861.1621532435465,
      "eccentricity": 0.00013585,
      "inclination_deg": 43.002,
      "raan_deg": 2.8319,
      "arg_perigee_deg": 261.9257,
      "mean_anomaly_deg": 98.144,
      "mean_motion_rev_day": 15.27587996
    },
    {
      "epoch": "2026-03-30T10:47:03.833088Z",
      "apogee_km": 483.9430128384238,
      "perigee_km": 482.0996940351888,
      "latitude_deg": 4.690450313990981e-06,
      "longitude_deg": 11.374609419251264,
      "height_km": 482.68122555341,
      "semi_major_axis_km": 6861.158353436806,
      "eccentricity": 0.00013433,
      "inclination_deg": 43.0025,
      "raan_deg": 0.9815,
      "arg_perigee_deg": 277.2973,
      "mean_anomaly_deg": 82.7726,
      "mean_motion_rev_day": 15.27589265
    },
    {
      "epoch": "2026-03-30T18:37:51.303072Z",
      "apogee_km": 483.5550403332163,
      "perigee_km": 482.54493638479016,
      "latitude_deg": -7.3970909927390475e-06,
      "longitude_deg": -108.48833979592214,
      "height_km": 482.6003030480566,
      "semi_major_axis_km": 6861.1869883590025,
      "eccentricity": 7.361e-05,
      "inclination_deg": 43.0005,
      "raan_deg": 359.1386,
      "arg_perigee_deg": 296.5597,
      "mean_anomaly_deg": 63.5179,
      "mean_motion_rev_day": 15.27579702
    },
    {
      "epoch": "2026-03-31T02:28:37.371648Z",
      "apogee_km": 483.91151736881693,
      "perigee_km": 482.13900471030047,
      "latitude_deg": 8.781035160596944e-06,
      "longitude_deg": 131.64989634378935,
      "height_km": 482.5903384778297,
      "semi_major_axis_km": 6861.162261039559,
      "eccentricity": 0.00012917,
      "inclination_deg": 43.0027,
      "raan_deg": 357.291,
      "arg_perigee_deg": 283.8286,
      "mean_anomaly_deg": 76.2422,
      "mean_motion_rev_day": 15.2758796
    },
    {
      "epoch": "2026-04-01T03:35:09.309984Z",
      "apogee_km": 483.9522067737871,
      "perigee_km": 482.17652785992595,
      "latitude_deg": 5.196856062657805e-05,
      "longitude_deg": 108.0753827180688,
      "height_km": 482.7432426685903,
      "semi_major_axis_km": 6861.201367316856,
      "eccentricity": 0.0001294,
      "inclination_deg": 43.0027,
      "raan_deg": 351.3807,
      "arg_perigee_deg": 276.3399,
      "mean_anomaly_deg": 83.7306,
      "mean_motion_rev_day": 15.275749
    },
    {
      "epoch": "2026-04-02T09:24:06.808608Z",
      "apogee_km": 483.85385883654453,
      "perigee_km": 482.26096394199703,
      "latitude_deg": 5.18842065759824e-05,
      "longitude_deg": 12.596907891598088,
      "height_km": 482.4831227154874,
      "semi_major_axis_km": 6861.1944113892705,
      "eccentricity": 0.00011608,
      "inclination_deg": 43.0058,
      "raan_deg": 344.3663,
      "arg_perigee_deg": 296.1791,
      "mean_anomaly_deg": 63.8942,
      "mean_motion_rev_day": 15.27577223
    },
    {
      "epoch": "2026-04-02T23:31:31.996416Z",
      "apogee_km": 484.0835868228414,
      "perigee_km": 482.0115090893587,
      "latitude_deg": 2.959722192083729e-05,
      "longitude_deg": 156.83839710058479,
      "height_km": 482.57810600826747,
      "semi_major_axis_km": 6861.1845479561,
      "eccentricity": 0.000151,
      "inclination_deg": 43.0047,
      "raan_deg": 341.0428,
      "arg_perigee_deg": 283.7786,
      "mean_anomaly_deg": 76.2898,
      "mean_motion_rev_day": 15.27580517
    },
    {
      "epoch": "2026-04-03T08:56:28.380480Z",
      "apogee_km": 484.0426367384189,
      "perigee_km": 482.0612625935337,
      "latitude_deg": -1.142018998875215e-05,
      "longitude_deg": 13.00103224095866,
      "height_km": 482.6387630674001,
      "semi_major_axis_km": 6861.188949665976,
      "eccentricity": 0.00014439,
      "inclination_deg": 42.9999,
      "raan_deg": 338.8271,
      "arg_perigee_deg": 281.0523,
      "mean_anomaly_deg": 79.0166,
      "mean_motion_rev_day": 15.27579047
    },
    {
      "epoch": "2026-04-04T08:28:48.297792Z",
      "apogee_km": 483.7762167346664,
      "perigee_km": 482.25496198255405,
      "latitude_deg": -7.829118638323325e-07,
      "longitude_deg": 13.412547529064078,
      "height_km": 482.67398968529125,
      "semi_major_axis_km": 6861.15258935861,
      "eccentricity": 0.00011086,
      "inclination_deg": 42.9964,
      "raan_deg": 333.2883,
      "arg_perigee_deg": 278.8985,
      "mean_anomaly_deg": 81.1741,
      "mean_motion_rev_day": 15.2759119
    },
    {
      "epoch": "2026-04-05T08:01:10.353504Z",
      "apogee_km": 483.9987742661224,
      "perigee_km": 482.19015365222367,
      "latitude_deg": 2.3333430810188157e-05,
      "longitude_deg": 13.815041966817294,
      "height_km": 482.66094196957846,
      "semi_major_axis_km": 6861.231463959173,
      "eccentricity": 0.0001318,
      "inclination_deg": 43.0004,
      "raan_deg": 327.7494,
      "arg_perigee_deg": 283.4408,
      "mean_anomaly_deg": 76.6297,
      "mean_motion_rev_day": 15.27564849
    },
    {
      "epoch": "2026-04-05T23:42:43.463520Z",
      "apogee_km": 483.87021103973893,
      "perigee_km": 482.1792091246716,
      "latitude_deg": 4.54648916330341e-06,
      "longitude_deg": 134.08619303010855,
      "height_km": 482.51249413461204,
      "semi_major_axis_km": 6861.161710082205,
      "eccentricity": 0.00012323,
      "inclination_deg": 43.005,
      "raan_deg": 324.053,
      "arg_perigee_deg": 290.0095,
      "mean_anomaly_deg": 70.0624,
      "mean_motion_rev_day": 15.27588144
    },
    {
      "epoch": "2026-04-07T14:56:40.346880Z",
      "apogee_km": 483.68273641649466,
      "perigee_km": 482.6112783059052,
      "latitude_deg": -6.892258579664958e-06,
      "longitude_deg": -105.23685768867271,
      "height_km": 482.9231672014538,
      "semi_major_axis_km": 6861.2840073612,
      "eccentricity": 7.808e-05,
      "inclination_deg": 42.9994,
      "raan_deg": 314.8282,
      "arg_perigee_deg": 269.9936,
      "mean_anomaly_deg": 90.0826,
      "mean_motion_rev_day": 15.27547302
    },
    {
      "epoch": "2026-04-07T21:13:16.640832Z",
      "apogee_km": 484.0968596046887,
      "perigee_km": 482.012429583061,
      "latitude_deg": -3.798911269916068e-05,
      "longitude_deg": 158.87450668753323,
      "height_km": 482.8118679368185,
      "semi_major_axis_km": 6861.191644593874,
      "eccentricity": 0.0001519,
      "inclination_deg": 42.9998,
      "raan_deg": 313.3486,
      "arg_perigee_deg": 271.0754,
      "mean_anomaly_deg": 88.9923,
      "mean_motion_rev_day": 15.27578147
    },
    {
      "epoch": "2026-04-08T14:28:59.359584Z",
      "apogee_km": 483.8286233616882,
      "perigee_km": 482.2037650622342,
      "latitude_deg": 4.610940675429443e-05,
      "longitude_deg": -104.82392028876544,
      "height_km": 482.85501458150816,
      "semi_major_axis_km": 6861.153194211961,
      "eccentricity": 0.00011841,
      "inclination_deg": 43.0003,
      "raan_deg": 309.287,
      "arg_perigee_deg": 265.6031,
      "mean_anomaly_deg": 94.4686,
      "mean_motion_rev_day": 15.27590988
    },
    {
      "epoch": "2026-04-08T22:19:46.189344Z",
      "apogee_km": 483.84257319933386,
      "perigee_km": 482.16708236498926,
      "latitude_deg": 1.972929163517079e-05,
      "longitude_deg": 135.31258877016265,
      "height_km": 482.79806779752425,
      "semi_major_axis_km": 6861.141827782161,
      "eccentricity": 0.0001221,
      "inclination_deg": 42.9998,
      "raan_deg": 307.4409,
      "arg_perigee_deg": 268.8566,
      "mean_anomaly_deg": 91.2146,
      "mean_motion_rev_day": 15.27594784
    },
    {
      "epoch": "2026-04-10T05:42:53.500608Z",
      "apogee_km": 483.86614943992754,
      "perigee_km": 482.1809111904722,
      "latitude_deg": -3.212163157954885e-05,
      "longitude_deg": 15.857815073545968,
      "height_km": 482.8769782036517,
      "semi_major_axis_km": 6861.1605303152,
      "eccentricity": 0.00012281,
      "inclination_deg": 42.9998,
      "raan_deg": 300.0556,
      "arg_perigee_deg": 264.762,
      "mean_anomaly_deg": 95.3091,
      "mean_motion_rev_day": 15.27588538
    },
    {
      "epoch": "2026-04-11T20:56:48.649920Z",
      "apogee_km": 483.88677119804925,
      "perigee_km": 482.2524317855732,
      "latitude_deg": -1.5742307096503916e-05,
      "longitude_deg": 136.5338401562023,
      "height_km": 482.8752314121611,
      "semi_major_axis_km": 6861.206601491811,
      "eccentricity": 0.0001191,
      "inclination_deg": 43.0015,
      "raan_deg": 290.8226,
      "arg_perigee_deg": 267.9705,
      "mean_anomaly_deg": 92.101,
      "mean_motion_rev_day": 15.27573152
    }
  ]
}